STARLINK-11466 [DTC]    
1 62220U 24231C   25293.26449670  .00169029  00000+0  13683-2 0  9992
2 62220  53.1561  73.6955 0001366 130.0140 230.0998 15.69771687 51357
STARLINK-11468 [DTC]    
1 62221U 24231D   25292.95595924  .00371547  00000+0  29283-2 0  9995
2 62221  53.1566  75.3289 0003860 302.6283  57.4362 15.69774810 51300
STARLINK-11488 [DTC]    
1 62222U 24231E   25293.25959164  .00275127  00000+0  21980-2 0  9993
2 62222  53.1558  73.6620 0001149  41.3509 318.7596 15.69746148 51358
STARLINK-11483 [DTC]    
1 62223U 24231F   25292.84323935  .00365423  00000+0  28906-2 0  9993
2 62223  53.1553  75.3186 0003086  12.7763 347.3333 15.69706304 51296
STARLINK-11492 [DTC]    
1 62224U 24231G   25292.76004070  .00437081  00000+0  34101-2 0  9995
2 62224  53.1560  76.2499 0003433 284.8038  75.2600 15.69822353 51270
STARLINK-11471 [DTC]    
1 62225U 24231H   25292.91179553  .00278269  00000+0  22320-2 0  9993
2 62225  53.1560  75.0478 0001286  97.7645 262.3519 15.69639098 51308
STARLINK-11475 [DTC]    
1 62226U 24231J   25292.91671852  .00190809  00000+0  15425-2 0  9994
2 62226  53.1559  75.0677 0000847 109.3573 250.7537 15.69731268 51303
STARLINK-11469 [DTC]    
1 62227U 24231K   25293.24487729  .00329741  00000+0  26082-2 0  9990
2 62227  53.1566  73.5626 0001970 136.9164 223.2008 15.69817983 51351
STARLINK-11476 [DTC]    
1 62228U 24231L   25292.90200075  .00293584  00000+0  23387-2 0  9990
2 62228  53.1556  74.9693 0001651  38.0238 322.0896 15.69758423 51312
STARLINK-11485 [DTC]    
1 62229U 24231M   25293.23997034  .00464685  00000+0  36034-2 0  9991
2 62229  53.1561  73.5267 0001695 154.3586 205.7516 15.69886193 51353
STARLINK-11481 [DTC]    
1 62230U 24231N   25292.83353318  .00452280  00000+0  35424-2 0  9999
2 62230  53.1564  75.9845 0002714  19.1644 340.9476 15.69682728 51289
STARLINK-32650          
1 62231U 24231P   25293.11803376  .00024202  00000+0  82675-3 0  9996
2 62231  53.1567 152.7558 0000713 110.7566 249.3511 15.30193950 50245
STARLINK-32636          
1 62232U 24231Q   25292.88198644  .00037947  00000+0  12863-2 0  9996
2 62232  53.1592 153.4199 0001296  92.5546 267.5603 15.30211750 50215
STARLINK-32643          
1 62233U 24231R   25293.33336806  .00039087  00000+0  12925-2 0  9998
2 62233  53.1592 138.7922 0000921  91.5826 107.3915 15.31001152  5659
STARLINK-32652          
1 62234U 24231S   25293.03583303  .00050981  00000+0  17221-2 0  9992
2 62234  53.1575 152.9534 0001217  92.3310 267.7830 15.30191439 50221
STARLINK-32631          
1 62235U 24231T   25293.00473685  .00051023  00000+0  13567-2 0  9998
2 62235  53.1576 140.6940 0001032  90.4457 269.6665 15.37763345 50397
