[{"OBJECT_NAME":"STARLINK-11466 [DTC]","OBJECT_ID":"2024-231C","EPOCH":"2025-10-20T06:20:52.514880","MEAN_MOTION":15.69771687,"ECCENTRICITY":0.00013665,"INCLINATION":53.1561,"RA_OF_ASC_NODE":73.6955,"ARG_OF_PERICENTER":130.014,"MEAN_ANOMALY":230.0998,"EPHEMERIS_TYPE":0,"CLASSIFICATION_TYPE":"U","NORAD_CAT_ID":62220,"ELEMENT_SET_NO":999,"REV_AT_EPOCH":5135,"BSTAR":0.0013682884,"MEAN_MOTION_DOT":0.00169029,"MEAN_MOTION_DDOT":0},{"OBJECT_NAME":"STARLINK-11468 [DTC]","OBJECT_ID":"2024-231D","EPOCH":"2025-10-19T22:56:34.878336","MEAN_MOTION":15.6977481,"ECCENTRICITY":0.000386,"INCLINATION":53.1566,"RA_OF_ASC_NODE":75.3289,"ARG_OF_PERICENTER":302.6283,"MEAN_ANOMALY":57.4362,"EPHEMERIS_TYPE":0,"CLASSIFICATION_TYPE":"U","NORAD_CAT_ID":62221,"ELEMENT_SET_NO":999,"REV_AT_EPOCH":5130,"BSTAR":0.0029283,"MEAN_MOTION_DOT":0.00371547,"MEAN_MOTION_DDOT":0},{"OBJECT_NAME":"STARLINK-11488 [DTC]","OBJECT_ID":"2024-231E","EPOCH":"2025-10-20T06:13:48.717696","MEAN_MOTION":15.69746148,"ECCENTRICITY":0.00011495,"INCLINATION":53.1558,"RA_OF_ASC_NODE":73.662,"ARG_OF_PERICENTER":41.3509,"MEAN_ANOMALY":318.7596,"EPHEMERIS_TYPE":0,"CLASSIFICATION_TYPE":"U","NORAD_CAT_ID":62222,"ELEMENT_SET_NO":999,"REV_AT_EPOCH":5135,"BSTAR":0.0021979832,"MEAN_MOTION_DOT":0.00275127,"MEAN_MOTION_DDOT":0},{"OBJECT_NAME":"STARLINK-11483 [DTC]","OBJECT_ID":"2024-231F","EPOCH":"2025-10-19T20:14:15.879840","MEAN_MOTION":15.69706304,"ECCENTRICITY":0.0003086,"INCLINATION":53.1553,"RA_OF_ASC_NODE":75.3186,"ARG_OF_PERICENTER":12.7763,"MEAN_ANOMALY":347.3333,"EPHEMERIS_TYPE":0,"CLASSIFICATION_TYPE":"U","NORAD_CAT_ID":62223,"ELEMENT_SET_NO":999,"REV_AT_EPOCH":5129,"BSTAR":0.0028906125,"MEAN_MOTION_DOT":0.00365423,"MEAN_MOTION_DDOT":0},{"OBJECT_NAME":"STARLINK-11492 [DTC]","OBJECT_ID":"2024-231G","EPOCH":"2025-10-19T18:14:27.516480","MEAN_MOTION":15.69822353,"ECCENTRICITY":0.0003433,"INCLINATION":53.156,"RA_OF_ASC_NODE":76.2499,"ARG_OF_PERICENTER":284.8038,"MEAN_ANOMALY":75.26,"EPHEMERIS_TYPE":0,"CLASSIFICATION_TYPE":"U","NORAD_CAT_ID":62224,"ELEMENT_SET_NO":999,"REV_AT_EPOCH":5127,"BSTAR":0.0034100701,"MEAN_MOTION_DOT":0.00437081,"MEAN_MOTION_DDOT":0},{"OBJECT_NAME":"STARLINK-11471 [DTC]","OBJECT_ID":"2024-231H","EPOCH":"2025-10-19T21:52:59.133792","MEAN_MOTION":15.69639098,"ECCENTRICITY":0.0001286,"INCLINATION":53.156,"RA_OF_ASC_NODE":75.0478,"ARG_OF_PERICENTER":97.7645,"MEAN_ANOMALY":262.3519,"EPHEMERIS_TYPE":0,"CLASSIFICATION_TYPE":"U","NORAD_CAT_ID":62225,"ELEMENT_SET_NO":999,"REV_AT_EPOCH":5130,"BSTAR":0.002232,"MEAN_MOTION_DOT":0.00278269,"MEAN_MOTION_DDOT":0},{"OBJECT_NAME":"STARLINK-11475 [DTC]","OBJECT_ID":"2024-231J","EPOCH":"2025-10-19T22:00:04.480128","MEAN_MOTION":15.69731268,"ECCENTRICITY":8.47e-5,"INCLINATION":53.1559,"RA_OF_ASC_NODE":75.0677,"ARG_OF_PERICENTER":109.3573,"MEAN_ANOMALY":250.7537,"EPHEMERIS_TYPE":0,"CLASSIFICATION_TYPE":"U","NORAD_CAT_ID":62226,"ELEMENT_SET_NO":999,"REV_AT_EPOCH":5130,"BSTAR":0.0015425,"MEAN_MOTION_DOT":0.00190809,"MEAN_MOTION_DDOT":0},{"OBJECT_NAME":"STARLINK-11469 [DTC]","OBJECT_ID":"2024-231K","EPOCH":"2025-10-20T05:52:37.397856","MEAN_MOTION":15.69817983,"ECCENTRICITY":0.00019701,"INCLINATION":53.1566,"RA_OF_ASC_NODE":73.5626,"ARG_OF_PERICENTER":136.9164,"MEAN_ANOMALY":223.2008,"EPHEMERIS_TYPE":0,"CLASSIFICATION_TYPE":"U","NORAD_CAT_ID":62227,"ELEMENT_SET_NO":999,"REV_AT_EPOCH":5135,"BSTAR":0.0026081708,"MEAN_MOTION_DOT":0.00329741,"MEAN_MOTION_DDOT":0},{"OBJECT_NAME":"STARLINK-11476 [DTC]","OBJECT_ID":"2024-231L","EPOCH":"2025-10-19T21:38:52.864800","MEAN_MOTION":15.69758423,"ECCENTRICITY":0.0001651,"INCLINATION":53.1556,"RA_OF_ASC_NODE":74.9693,"ARG_OF_PERICENTER":38.0238,"MEAN_ANOMALY":322.0896,"EPHEMERIS_TYPE":0,"CLASSIFICATION_TYPE":"U","NORAD_CAT_ID":62228,"ELEMENT_SET_NO":999,"REV_AT_EPOCH":5131,"BSTAR":0.0023387,"MEAN_MOTION_DOT":0.00293584,"MEAN_MOTION_DDOT":0},{"OBJECT_NAME":"STARLINK-11485 [DTC]","OBJECT_ID":"2024-231M","EPOCH":"2025-10-20T05:45:33.437376","MEAN_MOTION":15.69886193,"ECCENTRICITY":0.00016955,"INCLINATION":53.1561,"RA_OF_ASC_NODE":73.5267,"ARG_OF_PERICENTER":154.3586,"MEAN_ANOMALY":205.7516,"EPHEMERIS_TYPE":0,"CLASSIFICATION_TYPE":"U","NORAD_CAT_ID":62229,"ELEMENT_SET_NO":999,"REV_AT_EPOCH":5135,"BSTAR":0.0036033878,"MEAN_MOTION_DOT":0.00464685,"MEAN_MOTION_DDOT":0},{"OBJECT_NAME":"STARLINK-11481 [DTC]","OBJECT_ID":"2024-231N","EPOCH":"2025-10-19T20:00:17.266752","MEAN_MOTION":15.69682728,"ECCENTRICITY":0.00027146,"INCLINATION":53.1564,"RA_OF_ASC_NODE":75.9845,"ARG_OF_PERICENTER":19.1644,"MEAN_ANOMALY":340.9476,"EPHEMERIS_TYPE":0,"CLASSIFICATION_TYPE":"U","NORAD_CAT_ID":62230,"ELEMENT_SET_NO":999,"REV_AT_EPOCH":5128,"BSTAR":0.0035424032,"MEAN_MOTION_DOT":0.0045228,"MEAN_MOTION_DDOT":0},{"OBJECT_NAME":"STARLINK-32650","OBJECT_ID":"2024-231P","EPOCH":"2025-10-20T02:49:58.116864","MEAN_MOTION":15.3019395,"ECCENTRICITY":7.134e-5,"INCLINATION":53.1567,"RA_OF_ASC_NODE":152.7558,"ARG_OF_PERICENTER":110.7566,"MEAN_ANOMALY":249.3511,"EPHEMERIS_TYPE":0,"CLASSIFICATION_TYPE":"U","NORAD_CAT_ID":62231,"ELEMENT_SET_NO":999,"REV_AT_EPOCH":5024,"BSTAR":0.00082674938,"MEAN_MOTION_DOT":0.00024202,"MEAN_MOTION_DDOT":0},{"OBJECT_NAME":"STARLINK-32636","OBJECT_ID":"2024-231Q","EPOCH":"2025-10-19T21:10:03.628416","MEAN_MOTION":15.3021175,"ECCENTRICITY":0.00012964,"INCLINATION":53.1592,"RA_OF_ASC_NODE":153.4199,"ARG_OF_PERICENTER":92.5546,"MEAN_ANOMALY":267.5603,"EPHEMERIS_TYPE":0,"CLASSIFICATION_TYPE":"U","NORAD_CAT_ID":62232,"ELEMENT_SET_NO":999,"REV_AT_EPOCH":5021,"BSTAR":0.0012863473,"MEAN_MOTION_DOT":0.00037947,"MEAN_MOTION_DDOT":0},{"OBJECT_NAME":"STARLINK-32643","OBJECT_ID":"2024-231R","EPOCH":"2025-10-20T08:00:03.000384","MEAN_MOTION":15.31001152,"ECCENTRICITY":9.213e-5,"INCLINATION":53.1592,"RA_OF_ASC_NODE":138.7922,"ARG_OF_PERICENTER":91.5826,"MEAN_ANOMALY":107.3915,"EPHEMERIS_TYPE":0,"CLASSIFICATION_TYPE":"U","NORAD_CAT_ID":62233,"ELEMENT_SET_NO":999,"REV_AT_EPOCH":565,"BSTAR":0.0012924979,"MEAN_MOTION_DOT":0.00039087,"MEAN_MOTION_DDOT":0},{"OBJECT_NAME":"STARLINK-32652","OBJECT_ID":"2024-231S","EPOCH":"2025-10-20T00:51:35.973792","MEAN_MOTION":15.30191439,"ECCENTRICITY":0.00012173,"INCLINATION":53.1575,"RA_OF_ASC_NODE":152.9534,"ARG_OF_PERICENTER":92.331,"MEAN_ANOMALY":267.783,"EPHEMERIS_TYPE":0,"CLASSIFICATION_TYPE":"U","NORAD_CAT_ID":62234,"ELEMENT_SET_NO":999,"REV_AT_EPOCH":5022,"BSTAR":0.0017220695,"MEAN_MOTION_DOT":0.00050981,"MEAN_MOTION_DDOT":0},{"OBJECT_NAME":"STARLINK-32631","OBJECT_ID":"2024-231T","EPOCH":"2025-10-20T00:06:49.263840","MEAN_MOTION":15.37763345,"ECCENTRICITY":0.00010322,"INCLINATION":53.1576,"RA_OF_ASC_NODE":140.694,"ARG_OF_PERICENTER":90.4457,"MEAN_ANOMALY":269.6665,"EPHEMERIS_TYPE":0,"CLASSIFICATION_TYPE":"U","NORAD_CAT_ID":62235,"ELEMENT_SET_NO":999,"REV_AT_EPOCH":5039,"BSTAR":0.0013566842,"MEAN_MOTION_DOT":0.00051023,"MEAN_MOTION_DDOT":0}]
